STARLINK-4800           
1 53854U 22114AN  22270.91668981 -.01234132  00000+0 -82400-2 0  9999
2 53854  53.2171 214.8729 0004987 268.1071 300.0128 15.77440581  1975
STARLINK-4703           
1 53855U 22114AP  22270.58334491 -.01343078  00000+0 -85382-2 0  9991
2 53855  53.2172 216.5386 0006690 272.7966 198.3611 15.78282293  1927
STARLINK-4795           
1 53856U 22114AQ  22270.91668981 -.01292168  00000+0 -86259-2 0  9990
2 53856  53.2169 214.8673 0005442 268.8884 301.6842 15.77573003  1974
STARLINK-4809           
1 53857U 22114AR  22270.91668981 -.01123218  00000+0 -74581-2 0  9995
2 53857  53.2169 214.8751 0005715 269.2120 297.4746 15.77295654  1971
STARLINK-4798           
1 53858U 22114AS  22270.91668981 -.01172222  00000+0 -77859-2 0  9996
2 53858  53.2170 214.8717 0005528 269.5076 299.1467 15.77403979  1971
STARLINK-4790           
1 53859U 22114AT  22270.91668981 -.01239734  00000+0 -82874-2 0  9992
2 53859  53.2169 214.8730 0004976 268.1816 299.4426 15.77427102  1970
STARLINK-4799           
1 53860U 22114AU  22270.91668981 -.01332149  00000+0 -87467-2 0  9991
2 53860  53.2169 214.8685 0005554 269.7707 300.2981 15.77568036  1979
STARLINK-4781           
1 53861U 22114AV  22270.91668981 -.01194245  00000+0 -79360-2 0  9998
2 53861  53.2169 214.8701 0005538 268.9257 300.2069 15.77443820  1972
STARLINK-4792           
1 53862U 22114AW  22270.58334491 -.01256970  00000+0 -80345-2 0  9997
2 53862  53.2172 216.5288 0006326 274.8566 201.5266 15.78431091  1308
STARLINK-4788           
1 53863U 22114AX  22270.91668981 -.01368503  00000+0 -90034-2 0  9991
2 53863  53.2169 214.8691 0006439 270.1696 299.3919 15.77578689  1979
STARLINK-4779           
1 53864U 22114AY  22270.91668981 -.01366706  00000+0 -89585-2 0  9994
2 53864  53.2169 214.8647 0006083 269.6751 302.3587 15.77663171  1978
STARLINK-4785           
1 53865U 22114AZ  22270.58334491 -.01359547  00000+0 -85693-2 0  9995
2 53865  53.2172 216.5274 0006367 275.0632 201.7712 15.78507533  1301
STARLINK-4762           
1 53866U 22114BA  22270.91668981 -.01143882  00000+0 -75194-2 0  9995
2 53866  53.2169 214.8617 0006109 269.0249 304.5612 15.77558824  1973
STARLINK-4793           
1 53867U 22114BB  22270.91668981 -.01160339  00000+0 -76472-2 0  9992
2 53867  53.2169 214.8630 0006229 269.1125 303.4815 15.77537280  1972
STARLINK-4789           
1 53868U 22114BC  22270.91668981 -.00708665  00000+0 -45914-2 0  9999
2 53868  53.2167 214.8609 0001333 109.7008 104.5579 15.77243002  1970
STARLINK-4810           
1 53869U 22114BD  22270.58334491 -.01356250  00000+0 -85280-2 0  9999
2 53869  53.2173 216.5247 0006100 276.4020 201.8391 15.78558757  1305
STARLINK-4732           
1 53870U 22114BE  22270.58334491 -.01223635  00000+0 -77607-2 0  9995
2 53870  53.2172 216.5224 0006639 273.6945 206.0155 15.78519883  1923
STARLINK-4740           
1 53871U 22114BF  22270.58334491 -.01144248  00000+0 -72133-2 0  9997
2 53871  53.2172 216.5207 0006527 274.6424 205.5769 15.78475965  1303
FALCON 9 DEB            
1 53872U 22114BG  22270.81540567  .01108124  11495-4  11094-2 0  9992
2 53872  53.2175 214.6212 0060782  79.0153 281.7711 16.06390383  2510
FALCON 9 DEB            
1 53873U 22114BH  22270.81294082  .00968672  11500-4  97985-3 0  9993
2 53873  53.2143 214.6001 0056331  80.5913 280.1484 16.06783777  2511
FALCON 9 DEB            
1 53874U 22114BJ  22270.80674030  .00920625  11534-4  86657-3 0  9995
2 53874  53.2145 214.5516 0054345  74.9910 285.7131 16.08042298  2519
FALCON 9 DEB            
1 53875U 22114BK  22270.86779000  .00989840  11545-4  90182-3 0  9999
2 53875  53.2160 214.2204 0054418  77.1392 283.5715 16.08489465  2524
CHUANGXIN 16B (CX-16B)  
1 53876U 22102B   22270.68766626  .00003198  00000+0  29686-3 0  9990
2 53876  28.9976 140.0034 0004809 257.5014 102.5044 14.91789842  1188
2022-115A               
1 53877U 22115A   22270.91112410 -.00085854  00000+0 -31936-1 0  9997
2 53877  98.4950 269.5089 0001568 126.7456 233.4114 14.32714799  1003
CZ-2D R/B               
1 53878U 22115B   22270.49042403  .00000718  00000+0  12121-3 0  9996
2 53878  98.5448 269.5074 0124601  22.8198 337.8471 14.67927655   968
SOYUZ-MS 22             
1 53879U 22116A   22270.52893583  .00010365  00000+0  18723-3 0  9998
2 53879  51.6443 189.5440 0002401 301.1062 224.7991 15.50321764361051
2022-118A               
1 53884U 22118A   22270.78894528  .00003603  00000+0  15676-3 0  9995
2 53884  97.5200 277.2987 0013466 249.7768 282.6456 15.22828104   431
2022-118B               
1 53885U 22118B   22270.78789272  .00004202  00000+0  17908-3 0  9991
2 53885  97.5197 277.3008 0010764 258.4606 274.6539 15.23469412   424
2022-118C               
1 53942U 22118C   22270.62002758  .00041487  23873-5  51531-3 0  9990
2 53942  97.5252 277.0724 0276376 355.8810   4.0151 15.26065059   409
2022-120A               
1 53943U 22120A   22270.87385247 -.00000038  00000+0  00000+0 0  9998
2 53943  34.9968 177.2185 0009656 285.9496 154.2792 15.24509987   207
2022-120B               
1 53944U 22120B   22270.80502689 -.00000038  00000+0  00000+0 0  9993
2 53944  34.9973 177.6541 0010334 281.8676 140.2589 15.24568310   196
2022-120C               
1 53945U 22120C   22270.87402012 -.00000038  00000+0  00000+0 0  9990
2 53945  34.9937 177.2181 0010809 280.3957 159.8683 15.24324394   177
2022-120D               
1 53946U 22120D   22270.87414153 -.00000038  00000+0  00000+0 0  9990
2 53946  34.9966 177.2234 0008144 276.6555 163.6124 15.24179404   162
2022-120E               
1 53947U 22120E   22270.80483065 -.00000038  00000+0  00000+0 0  9992
2 53947  34.9951 177.6596 0009768 284.6025 137.4505 15.24793139   198
2022-121A               
1 53948U 22121A   22270.78447089 -.00000067  00000+0  00000+0 0  9999
2 53948  97.4535 291.4159 0011085 264.7273 215.2448 15.17676225   122
2022-121B               
1 53949U 22121B   22270.78429858 -.00000067  00000+0  00000+0 0  9994
2 53949  97.4520 291.4134 0009905 270.1339 209.5262 15.17905448   124
2022-121C               
1 53950U 22121C   22270.97310623 -.00000068  00000+0  00000+0 0  9997
2 53950  97.4551 291.5998 0011730 275.9125 155.7780 15.18175910   158
NOAA 1 [-]              
1 04793U 70106A   22270.11961597 -.00000018  00000+0  16082-3 0  9998
2 04793 101.5467 331.3307 0031991 124.3695 291.3384 12.54007676370336
NOAA 2 (ITOS-D) [-]     
1 06235U 72082A   22270.75306852 -.00000047  00000+0 -31582-5 0  9990
2 06235 101.9645 253.6602 0003676 239.2358 294.1194 12.53151768285017
NOAA 3 [-]              
1 06920U 73086A   22270.50795691 -.00000043  00000+0  21489-4 0  9991
2 06920 102.2185 252.3813 0006711 100.4445  14.5334 12.40348704213442
NOAA 4 [-]              
1 07529U 74089A   22270.48092862 -.00000035  00000+0  66605-4 0  9998
2 07529 101.9250 250.4545 0008647 270.2495 212.0554 12.53160523189322
NOAA 5 [-]              
1 09057U 76077A   22270.49844747 -.00000044  00000+0  11085-4 0  9995
2 09057 102.1107 237.4388 0009819 313.6981 202.0558 12.37774350 86362
TIROS N [-]             
1 11060U 78096A   22270.13847902  .00000117  00000+0  77404-4 0  9999
2 11060  98.6251 321.1372 0010187 205.2568 154.8111 14.18415755486027
NOAA 6 [-]              
1 11416U 79057A   22270.49895245  .00000169  00000+0  76799-4 0  9997
2 11416  98.6648 281.5170 0009622 322.9771  37.0748 14.33801939256148
NOAA 7 [-]              
1 12553U 81059A   22270.09787397  .00000037  00000+0  40976-4 0  9991
2 12553  98.9891 315.7284 0011475 181.9215 178.1917 14.17344647132198
NOAA 8 [-]              
1 13923U 83022A   22270.45663086  .00000098  00000+0  56358-4 0  9991
2 13923  98.6954 260.6414 0013961 271.7557  88.2025 14.28833949 56971
NOAA 9 [-]              
1 15427U 84123A   22270.47973675  .00000088  00000+0  67884-4 0  9990
2 15427  99.0573 244.5193 0013948 234.5090 236.2121 14.16225177951053
NOAA 10 [-]             
1 16969U 86073A   22270.53569049  .00000091  00000+0  54054-4 0  9990
2 16969  98.5779 254.8544 0012639  18.8074  92.5481 14.28223428875408
NOAA 11 [-]             
1 19531U 88089A   22270.49753883  .00000031  00000+0  36890-4 0  9995
2 19531  98.4344 254.0164 0010080 242.2942 117.7211 14.15323288755250
NOAA 12 [-]             
1 21263U 91032A   22270.51378160  .00000065  00000+0  45048-4 0  9998
2 21263  98.5201 267.4993 0014470  44.3632 315.8705 14.26012082631273
NOAA 13 [-]             
1 22739U 93050A   22270.49609310  .00000090  00000+0  70334-4 0  9994
2 22739  98.5162 245.2588 0010504  54.9174 305.2983 14.12863294501466
NOAA 14 [-]             
1 23455U 94089A   22270.50719929  .00000022  00000+0  32939-4 0  9997
2 23455  98.4436 291.6721 0010118  37.1643 323.0230 14.14210019431136
NOAA 15 [B]             
1 25338U 98030A   22270.78085947  .00000115  00000+0  66277-4 0  9990
2 25338  98.6377 298.9476 0010341   5.8245 354.3053 14.26174360267856
NOAA 16 [-]             
1 26536U 00055A   22270.48252508  .00000046  00000+0  46860-4 0  9996
2 26536  98.6259 325.8144 0009692 230.3022 129.7297 14.13344939431767
NOAA 17 [-]             
1 27453U 02032A   22270.51614896  .00000083  00000+0  53918-4 0  9991
2 27453  98.6793 214.6189 0011493 340.7500  19.3243 14.25143881 53404
NOAA 18 [B]             
1 28654U 05018A   22270.61588563  .00000176  00000+0  11855-3 0  9990
2 28654  98.9408 340.9322 0014858  46.3619 313.8783 14.12780593894490
NOAA 19 [+]             
1 33591U 09005A   22270.84121877  .00000140  00000+0  10091-3 0  9994
2 33591  99.1397 307.0903 0012957 259.6623 100.3087 14.12613783702903
SUOMI NPP [+]           
1 37849U 11061A   22270.75025885  .00000060  00000+0  49311-4 0  9990
2 37849  98.7375 207.9037 0001116  78.6900 314.6167 14.19545769565699
NOAA 20 [+]             
1 43013U 17073A   22270.84874036  .00000065  00000+0  51470-4 0  9993
2 43013  98.7214 207.8210 0001579  97.6538 262.4818 14.19545349251750
